NORAD_CAT_ID,OBJECT_NAME,OBJECT_TYPE,EPOCH,MEAN_MOTION,ECCENTRICITY,INCLINATION,RA_OF_ASC_NODE,ARG_OF_PERICENTER,MEAN_ANOMALY,BSTAR,MEAN_MOTION_DOT,MEAN_MOTION_DDOT,TLE_LINE0,TLE_LINE1,TLE_LINE2,SEMIMAJOR_AXIS,PERIOD,APOGEE,PERIGEE,DECAYED
54013.0,STARLINK-5098,PAYLOAD,2022-12-24 06:00:00,15.27491351,0.0001945,53.2171,63.4856,34.5028,88.3159,-0.03664,-0.00926125,0.0,0 STARLINK-5098,1 54013U 22125BB  22358.25001157 -.00926125  00000-0 -36640-1 0  9993,2 54013  53.2171  63.4856 0001945  34.5028  88.3159 15.27491351 12800,6861.4519999999975,94.272,484.651,481.982,0.0
54013.0,STARLINK-5098,PAYLOAD,2022-12-24 14:00:01,15.26835937,0.0001871,53.2173,61.9483,42.7241,113.7014,-0.037102,-0.00919687,0.0,0 STARLINK-5098,1 54013U 22125BB  22358.58334491 -.00919687  00000-0 -37102-1 0  9998,2 54013  53.2173  61.9483 0001871  42.7241 113.7014 15.26835937  1304,6863.415,94.313,486.564,483.996,0.0
54013.0,STARLINK-5098,PAYLOAD,2022-12-24 22:00:00,15.26189952,0.0001795,53.217,60.4092,37.5951,151.6527,-0.038173,-0.00927218,0.0,0 STARLINK-5098,1 54013U 22125BB  22358.91667824 -.00927218  00000-0 -38173-1 0  9992,2 54013  53.2170  60.4092 0001795  37.5951 151.6527 15.26189952  1305,6865.352,94.353,488.449,485.984,0.0
54013.0,STARLINK-5098,PAYLOAD,2022-12-25 06:00:00,15.25535349,0.0001952,53.2171,58.87300000000001,35.8032,185.4871,-0.038666,-0.00921226,0.0,0 STARLINK-5098,1 54013U 22125BB  22359.25001157 -.00921226  00000-0 -38666-1 0  9991,2 54013  53.2171  58.8730 0001952  35.8032 185.4871 15.25535349 12956,6867.315,94.393,490.521,487.84,0.0
54013.0,STARLINK-5098,PAYLOAD,2022-12-25 14:00:01,15.24903669,0.0001591,53.2171,57.3403,46.2836,206.2552,-0.040656,-0.00948136,0.0,0 STARLINK-5098,1 54013U 22125BB  22359.58334491 -.00948136  00000-0 -40656-1 0  9998,2 54013  53.2171  57.3403 0001591  46.2836 206.2552 15.24903669  1302,6869.212,94.432,492.17,489.984,0.0
54013.0,STARLINK-5098,PAYLOAD,2022-12-26 00:00:00,15.24068428,0.000168,53.2173,55.4218,36.1344,344.3902,-0.040279,-0.00918347,0.0,0 STARLINK-5098,1 54013U 22125BB  22360.00001157 -.00918347  00000-0 -40279-1 0  9999,2 54013  53.2173  55.4218 0001680  36.1344 344.3902 15.24068428  1306,6871.721,94.484,494.741,492.432,0.0
54013.0,STARLINK-5098,PAYLOAD,2022-12-26 06:00:00,15.23596253,0.0001682,53.2168,54.274,38.0271,274.6866,-0.041927,-0.00940731,0.0,0 STARLINK-5098,1 54013U 22125BB  22360.25001157 -.00940731  00000-0 -41927-1 0  9999,2 54013  53.2168  54.2740 0001682  38.0271 274.6866 15.23596253 13105,6873.141,94.513,496.162,493.85,0.0
54013.0,STARLINK-5098,PAYLOAD,2022-12-26 14:00:01,15.22933673,0.000162,53.2169,52.7458,43.6973,297.9332,-0.041972,-0.00924541,0.0,0 STARLINK-5098,1 54013U 22125BB  22360.58334491 -.00924541  00000-0 -41972-1 0  9996,2 54013  53.2169  52.7458 0001620  43.6973 297.9332 15.22933673  1303,6875.134,94.554,498.11300000000006,495.885,0.0
54013.0,STARLINK-5098,PAYLOAD,2022-12-27 00:00:00,15.22115598,0.000196,53.2172,50.8333,35.0205,71.6538,-0.042736,-0.00919225,0.0,0 STARLINK-5098,1 54013U 22125BB  22361.00001157 -.00919225  00000-0 -42736-1 0  9996,2 54013  53.2172  50.8333 0001960  35.0205  71.6538 15.22115598  1301,6877.597,94.605,500.81,498.114,0.0
54013.0,STARLINK-5098,PAYLOAD,2022-12-27 14:00:01,15.20974165,0.0001717,53.2169,48.1649,39.0397,24.6366,-0.043989,-0.00915073,0.0,0 STARLINK-5098,1 54013U 22125BB  22361.58334491 -.00915073  00000-0 -43989-1 0  9997,2 54013  53.2169  48.1649 0001717  39.0397  24.6366 15.20974165 13304,6881.038000000001,94.676,504.084,501.721,0.0
54013.0,STARLINK-5098,PAYLOAD,2022-12-27 22:00:00,15.20329402,0.0001871,53.2169,46.6394,35.6726,53.7851,-0.045339,-0.0092472,0.0,0 STARLINK-5098,1 54013U 22125BB  22361.91667824 -.00924720  00000-0 -45339-1 0  9993,2 54013  53.2169  46.6394 0001871  35.6726  53.7851 15.20329402  1300,6882.983,94.716,506.136,503.56,0.0
54013.0,STARLINK-5098,PAYLOAD,2022-12-28 14:00:01,15.19023105,0.0001716,53.2167,43.5978,43.4825,95.1949,-0.046699,-0.00917319,0.0,0 STARLINK-5098,1 54013U 22125BB  22362.58334491 -.00917319  00000-0 -46699-1 0  9994,2 54013  53.2167  43.5978 0001716  43.4825  95.1949 15.19023105  1304,6886.929,94.798,509.976,507.612,0.0
54013.0,STARLINK-5098,PAYLOAD,2022-12-28 22:00:00,15.18379281,0.0001841,53.2168,42.0769,38.4205,123.6909,-0.048183,-0.00928092,0.0,0 STARLINK-5098,1 54013U 22125BB  22362.91667824 -.00928092  00000-0 -48183-1 0  9990,2 54013  53.2168  42.0769 0001841  38.4205 123.6909 15.18379281  1303,6888.875,94.838,512.009,509.472,0.0
54013.0,STARLINK-5098,PAYLOAD,2022-12-29 14:00:01,15.17081552,0.0001785,53.2165,39.0444,46.6634,159.9699,-0.050298,-0.00932772,0.0,0 STARLINK-5098,1 54013U 22125BB  22363.58334491 -.00932772  00000-0 -50298-1 0  9995,2 54013  53.2165  39.0444 0001785  46.6634 159.9699 15.17081552 13615,6892.803000000001,94.919,515.899,513.438,0.0
54013.0,STARLINK-5098,PAYLOAD,2022-12-30 14:00:01,15.15128894,0.0001629,53.2165,34.5046,45.4622,222.0924,-0.053257,-0.0093379999999999,0.0,0 STARLINK-5098,1 54013U 22125BB  22364.58334491 -.00933800  00000-0 -53257-1 0  9997,2 54013  53.2165  34.5046 0001629  45.4622 222.0924 15.15128894  1309,6898.724,95.041,521.7130000000002,519.465,0.0
54013.0,STARLINK-5098,PAYLOAD,2022-12-30 22:00:00,15.14466393,0.000166,53.217,32.9926,43.7257,242.578,-0.053274,-0.00917912,0.0,0 STARLINK-5098,1 54013U 22125BB  22364.91667824 -.00917912  00000-0 -53274-1 0  9998,2 54013  53.2170  32.9926 0001660  43.7257 242.5780 15.14466393 13818,6900.736,95.083,523.747,521.455,0.0
54013.0,STARLINK-5098,PAYLOAD,2022-12-31 14:00:01,15.13165471,0.0001647,53.2164,29.9785,40.4502,280.9899,-0.0553559999999999,-0.00919219,0.0,0 STARLINK-5098,1 54013U 22125BB  22365.58334491 -.00919219  00000-0 -55356-1 0  9998,2 54013  53.2164  29.9785 0001647  40.4502 280.9899 15.13165471  1302,6904.691,95.165,527.693,525.418,0.0
54013.0,STARLINK-5098,PAYLOAD,2022-12-31 22:00:00,15.12512019,0.0001648,53.2169,28.4711,41.197,296.6411,-0.05617,-0.00915996,0.0,0 STARLINK-5098,1 54013U 22125BB  22365.91667824 -.00915996  00000-0 -56170-1 0  9997,2 54013  53.2169  28.4711 0001648  41.1970 296.6411 15.12512019  1305,6906.679,95.206,529.682,527.406,0.0
54013.0,STARLINK-5098,PAYLOAD,2023-01-01 14:00:01,15.11215513,0.0001742,53.2163,25.4659,36.4241,331.8546,-0.058762,-0.00923533,0.0,0 STARLINK-5098,1 54013U 22125BB  23001.58334491 -.00923533  00000-0 -58762-1 0  9994,2 54013  53.2163  25.4659 0001742  36.4241 331.8546 15.11215513  1309,6910.629,95.288,533.698,531.29,0.0
54013.0,STARLINK-5098,PAYLOAD,2023-01-01 22:00:00,15.10557691,0.0001776,53.2169,23.963,37.2993,345.0326,-0.059204,-0.00914323,0.0,0 STARLINK-5098,1 54013U 22125BB  23001.91667824 -.00914323  00000-0 -59204-1 0  9999,2 54013  53.2169  23.9630 0001776  37.2993 345.0326 15.10557691 14118,6912.635,95.329,535.7280000000002,533.2719999999998,0.0
54013.0,STARLINK-5098,PAYLOAD,2023-01-02 00:00:00,15.10397397,0.0001906,53.2174,23.5877,40.5391,75.1818,-0.0597269999999999,-0.00918029,0.0,0 STARLINK-5098,1 54013U 22125BB  23002.00001157 -.00918029  00000-0 -59727-1 0  9998,2 54013  53.2174  23.5877 0001906  40.5391  75.1818 15.10397397  1306,6913.124,95.339,536.307,533.6709999999998,0.0
54013.0,STARLINK-5098,PAYLOAD,2023-01-02 14:00:01,15.09186282,0.0001898,53.2164,20.9669,44.1138,3.9702,-0.028538,-0.00432093,0.0,0 STARLINK-5098,1 54013U 22125BB  23002.58334491 -.00432093  00000-0 -28538-1 0  9999,2 54013  53.2164  20.9669 0001898  44.1138   3.9702 15.09186282 14216,6916.821999999999,95.416,540.0,537.374,0.0
54013.0,STARLINK-5098,PAYLOAD,2023-01-02 22:00:00,15.08782593,0.0001857,53.2124,19.4673,44.6863,15.1183,0.0048404,0.00077473,0.0,0 STARLINK-5098,1 54013U 22125BB  23002.91667824  .00077473  00000-0  48404-2 0  9995,2 54013  53.2124  19.4673 0001857  44.6863  15.1183 15.08782593  1305,6918.056,95.441,541.206,538.636,0.0
54013.0,STARLINK-5098,PAYLOAD,2023-01-03 06:00:00,15.08857098,0.0002003,53.2137,17.9721,42.2863,29.0892,-0.00072979,-0.0001189,0.0,0 STARLINK-5098,1 54013U 22125BB  23003.25001157 -.00011890  00000-0 -72979-3 0  9992,2 54013  53.2137  17.9721 0002003  42.2863  29.0892 15.08857098 14324,6917.828,95.436,541.0790000000002,538.307,0.0
54013.0,STARLINK-5098,PAYLOAD,2023-01-03 14:00:01,15.08856638,0.0002088,53.213,16.4754,39.6138,43.3675,0.00082814,0.00012922,0.0,0 STARLINK-5098,1 54013U 22125BB  23003.58334491  .00012922  00000-0  82814-3 0  9992,2 54013  53.2130  16.4754 0002088  39.6138  43.3675 15.08856638  1306,6917.83,95.437,541.139,538.25,0.0
54013.0,STARLINK-5098,PAYLOAD,2023-01-03 22:00:00,15.08858157,0.0001889,53.2132,14.9772,44.4579,50.1498,0.00081181,0.00012662,0.0,0 STARLINK-5098,1 54013U 22125BB  23003.91667824  .00012662  00000-0  81181-3 0  9995,2 54013  53.2132  14.9772 0001889  44.4579  50.1498 15.08858157 14426,6917.825,95.436,540.997,538.383,0.0
54013.0,STARLINK-5098,PAYLOAD,2023-01-04 14:00:01,15.08878977,0.0002070999999999,53.2133,11.9854,39.7953,78.1223,0.00093544,0.00014647,0.0,0 STARLINK-5098,1 54013U 22125BB  23004.58335648  .00014647  00000-0  93544-3 0  9996,2 54013  53.2133  11.9854 0002071  39.7953  78.1223 15.08878977  1303,6917.761,95.435,541.059,538.194,0.0
54013.0,STARLINK-5098,PAYLOAD,2023-01-04 22:00:00,15.08886824,0.0001875,53.2136,10.4872,45.0867,84.427,-0.00017798,-3.123e-05,0.0,0 STARLINK-5098,1 54013U 22125BB  23004.91667824 -.00003123  00000-0 -17798-3 0  9993,2 54013  53.2136  10.4872 0001875  45.0867  84.4270 15.08886824  1307,6917.736999999999,95.435,540.899,538.305,0.0
54013.0,STARLINK-5098,PAYLOAD,2023-01-05 06:00:00,15.08877924,0.0002031,53.2136,8.9921,42.9806,98.1818,-0.0037868,-0.00060116,0.0,0 STARLINK-5098,1 54013U 22125BB  23005.25001157 -.00060116  00000-0 -37868-2 0  9996,2 54013  53.2136   8.9921 0002031  42.9806  98.1818 15.08877924 14628,6917.764,95.435,541.034,538.224,0.0
